{"type": "FeatureCollection", "features": [{"type": "Feature", "properties": {"norad_id": 2807, "name": "OPS 7218 (TRANSIT 16)", "group": "nnss", "lat": 64.09427809413704, "lon": 173.19469182866052, "alt_km": 1047.4472251381858, "timestamp": "2025-12-17T04:57:44.635495+00:00", "meta": {"OBJECT_NAME": "OPS 7218 (TRANSIT 16)", "OBJECT_ID": "1967-048A", "EPOCH": "2025-12-16T23:20:17.679840", "MEAN_MOTION": 13.50723111, "ECCENTRICITY": 0.00220935, "INCLINATION": 89.6731, "RA_OF_ASC_NODE": 353.8759, "ARG_OF_PERICENTER": 102.792, "MEAN_ANOMALY": 314.1827, "EPHEMERIS_TYPE": 0, "CLASSIFICATION_TYPE": "U", "NORAD_CAT_ID": 2807, "ELEMENT_SET_NO": 999, "REV_AT_EPOCH": 88333, "BSTAR": 0.00017641229, "MEAN_MOTION_DOT": 1.24e-06, "MEAN_MOTION_DDOT": 0}, "tle": {"line1": "1 02807U 67048A   25350.97242685  .00000124  00000+0  17641-3 0  9998", "line2": "2 02807  89.6731 353.8759 0022093 102.7920 314.1827 13.50723111883335"}}, "geometry": {"type": "Point", "coordinates": [173.19469182866052, 64.09427809413704]}}, {"type": "Feature", "properties": {"norad_id": 2965, "name": "OPS 4947 (TRANSIT 17)", "group": "nnss", "lat": -44.26917011552859, "lon": -155.17266693378758, "alt_km": 1031.803094985783, "timestamp": "2025-12-17T04:57:44.635514+00:00", "meta": {"OBJECT_NAME": "OPS 4947 (TRANSIT 17)", "OBJECT_ID": "1967-092A", "EPOCH": "2025-12-17T00:37:32.193120", "MEAN_MOTION": 13.53454589, "ECCENTRICITY": 0.00464587, "INCLINATION": 89.2493, "RA_OF_ASC_NODE": 24.1088, "ARG_OF_PERICENTER": 221.692, "MEAN_ANOMALY": 202.5434, "EPHEMERIS_TYPE": 0, "CLASSIFICATION_TYPE": "U", "NORAD_CAT_ID": 2965, "ELEMENT_SET_NO": 999, "REV_AT_EPOCH": 87155, "BSTAR": 0.00021064631, "MEAN_MOTION_DOT": 1.54e-06, "MEAN_MOTION_DDOT": 0}, "tle": {"line1": "1 02965U 67092A   25351.02606705  .00000154  00000+0  21065-3 0  9994", "line2": "2 02965  89.2493  24.1088 0046458 221.6920 202.5434 13.53454589871554"}}, "geometry": {"type": "Point", "coordinates": [-155.17266693378758, -44.26917011552859]}}, {"type": "Feature", "properties": {"norad_id": 3133, "name": "OPS 7034 (TRANSIT 18)", "group": "nnss", "lat": -17.195241093122164, "lon": -86.33979533954185, "alt_km": 1126.315619647522, "timestamp": "2025-12-17T04:57:44.635525+00:00", "meta": {"OBJECT_NAME": "OPS 7034 (TRANSIT 18)", "OBJECT_ID": "1968-012A", "EPOCH": "2025-12-16T20:28:55.964064", "MEAN_MOTION": 13.51566617, "ECCENTRICITY": 0.00742512, "INCLINATION": 90.0281, "RA_OF_ASC_NODE": 273.6505, "ARG_OF_PERICENTER": 157.2452, "MEAN_ANOMALY": 267.5658, "EPHEMERIS_TYPE": 0, "CLASSIFICATION_TYPE": "U", "NORAD_CAT_ID": 3133, "ELEMENT_SET_NO": 999, "REV_AT_EPOCH": 56974, "BSTAR": 0.00013330459, "MEAN_MOTION_DOT": 9.8e-07, "MEAN_MOTION_DDOT": 0}, "tle": {"line1": "1 03133U 68012A   25350.85342551  .00000098  00000+0  13330-3 0  9994", "line2": "2 03133  90.0281 273.6505 0074251 157.2452 267.5658 13.51566617569746"}}, "geometry": {"type": "Point", "coordinates": [-86.33979533954185, -17.195241093122164]}}, {"type": "Feature", "properties": {"norad_id": 4507, "name": "NNSS 19 (TRANSIT 19)", "group": "nnss", "lat": -48.63348637358516, "lon": -125.45712399156045, "alt_km": 965.159100591356, "timestamp": "2025-12-17T04:57:44.635536+00:00", "meta": {"OBJECT_NAME": "NNSS 19 (TRANSIT 19)", "OBJECT_ID": "1970-067A", "EPOCH": "2025-12-16T16:45:30.285216", "MEAN_MOTION": 13.51315902, "ECCENTRICITY": 0.01703466, "INCLINATION": 90.0052, "RA_OF_ASC_NODE": 234.5367, "ARG_OF_PERICENTER": 281.8048, "MEAN_ANOMALY": 76.4041, "EPHEMERIS_TYPE": 0, "CLASSIFICATION_TYPE": "U", "NORAD_CAT_ID": 4507, "ELEMENT_SET_NO": 999, "REV_AT_EPOCH": 72275, "BSTAR": 0.00013076623, "MEAN_MOTION_DOT": 1e-06, "MEAN_MOTION_DDOT": 0}, "tle": {"line1": "1 04507U 70067A   25350.69826719  .00000100  00000+0  13077-3 0  9990", "line2": "2 04507  90.0052 234.5367 0170346 281.8048  76.4041 13.51315902722751"}}, "geometry": {"type": "Point", "coordinates": [-125.45712399156045, -48.63348637358516]}}, {"type": "Feature", "properties": {"norad_id": 6909, "name": "NNSS 20 (TRANSIT 20)", "group": "nnss", "lat": -15.673656935702427, "lon": -105.05311211263437, "alt_km": 978.6663349991604, "timestamp": "2025-12-17T04:57:44.635546+00:00", "meta": {"OBJECT_NAME": "NNSS 20 (TRANSIT 20)", "OBJECT_ID": "1973-081A", "EPOCH": "2025-12-16T18:31:54.033888", "MEAN_MOTION": 13.71436224, "ECCENTRICITY": 0.01565552, "INCLINATION": 89.8562, "RA_OF_ASC_NODE": 254.9938, "ARG_OF_PERICENTER": 66.3791, "MEAN_ANOMALY": 295.3721, "EPHEMERIS_TYPE": 0, "CLASSIFICATION_TYPE": "U", "NORAD_CAT_ID": 6909, "ELEMENT_SET_NO": 999, "REV_AT_EPOCH": 80416, "BSTAR": 0.00023685714, "MEAN_MOTION_DOT": 2.44e-06, "MEAN_MOTION_DDOT": 0}, "tle": {"line1": "1 06909U 73081A   25350.77215317  .00000244  00000+0  23686-3 0  9998", "line2": "2 06909  89.8562 254.9938 0156555  66.3791 295.3721 13.71436224804164"}}, "geometry": {"type": "Point", "coordinates": [-105.05311211263437, -15.673656935702427]}}, {"type": "Feature", "properties": {"norad_id": 10457, "name": "TRANSAT", "group": "nnss", "lat": -82.35795389629753, "lon": 75.81368871329614, "alt_km": 1087.2500483841777, "timestamp": "2025-12-17T04:57:44.635556+00:00", "meta": {"OBJECT_NAME": "TRANSAT", "OBJECT_ID": "1977-106A", "EPOCH": "2025-12-16T19:15:33.820128", "MEAN_MOTION": 13.48944212, "ECCENTRICITY": 0.00257827, "INCLINATION": 89.6481, "RA_OF_ASC_NODE": 78.4532, "ARG_OF_PERICENTER": 177.7803, "MEAN_ANOMALY": 297.4249, "EPHEMERIS_TYPE": 0, "CLASSIFICATION_TYPE": "U", "NORAD_CAT_ID": 10457, "ELEMENT_SET_NO": 999, "REV_AT_EPOCH": 36798, "BSTAR": 9.3925565e-05, "MEAN_MOTION_DOT": 6.9e-07, "MEAN_MOTION_DDOT": 0}, "tle": {"line1": "1 10457U 77106A   25350.80247477  .00000069  00000+0  93926-4 0  9999", "line2": "2 10457  89.6481  78.4532 0025782 177.7803 297.4249 13.48944212367989"}}, "geometry": {"type": "Point", "coordinates": [75.81368871329614, -82.35795389629753]}}, {"type": "Feature", "properties": {"norad_id": 12458, "name": "NOVA 1", "group": "nnss", "lat": 53.109366392916705, "lon": -88.87436496708479, "alt_km": 1157.2972367014918, "timestamp": "2025-12-17T04:57:44.635566+00:00", "meta": {"OBJECT_NAME": "NOVA 1", "OBJECT_ID": "1981-044A", "EPOCH": "2025-12-16T19:49:11.947872", "MEAN_MOTION": 13.23278928, "ECCENTRICITY": 0.00159319, "INCLINATION": 89.8527, "RA_OF_ASC_NODE": 91.3274, "ARG_OF_PERICENTER": 93.9903, "MEAN_ANOMALY": 19.092, "EPHEMERIS_TYPE": 0, "CLASSIFICATION_TYPE": "U", "NORAD_CAT_ID": 12458, "ELEMENT_SET_NO": 999, "REV_AT_EPOCH": 15240, "BSTAR": 5.7343517e-05, "MEAN_MOTION_DOT": 3.3e-07, "MEAN_MOTION_DDOT": 0}, "tle": {"line1": "1 12458U 81044A   25350.82583273  .00000033  00000+0  57344-4 0  9992", "line2": "2 12458  89.8527  91.3274 0015931  93.9903  19.0920 13.23278928152407"}}, "geometry": {"type": "Point", "coordinates": [-88.87436496708479, 53.109366392916705]}}, {"type": "Feature", "properties": {"norad_id": 15362, "name": "NOVA 3", "group": "nnss", "lat": -4.257045476604531, "lon": 80.59645165599753, "alt_km": 1158.2428848328, "timestamp": "2025-12-17T04:57:44.635576+00:00", "meta": {"OBJECT_NAME": "NOVA 3", "OBJECT_ID": "1984-110A", "EPOCH": "2025-12-16T20:31:51.362976", "MEAN_MOTION": 13.23045032, "ECCENTRICITY": 0.00301972, "INCLINATION": 90.1224, "RA_OF_ASC_NODE": 80.5832, "ARG_OF_PERICENTER": 320.1729, "MEAN_ANOMALY": 163.1657, "EPHEMERIS_TYPE": 0, "CLASSIFICATION_TYPE": "U", "NORAD_CAT_ID": 15362, "ELEMENT_SET_NO": 999, "REV_AT_EPOCH": 98753, "BSTAR": 0.0001418096, "MEAN_MOTION_DOT": 6.8e-07, "MEAN_MOTION_DDOT": 0}, "tle": {"line1": "1 15362U 84110A   25350.85545559  .00000068  00000+0  14181-3 0  9993", "line2": "2 15362  90.1224  80.5832 0030197 320.1729 163.1657 13.23045032987531"}}, "geometry": {"type": "Point", "coordinates": [80.59645165599753, -4.257045476604531]}}, {"type": "Feature", "properties": {"norad_id": 15935, "name": "OSCAR 30", "group": "nnss", "lat": -75.37020103750336, "lon": 100.55446338542369, "alt_km": 1236.9860258648068, "timestamp": "2025-12-17T04:57:44.635585+00:00", "meta": {"OBJECT_NAME": "OSCAR 30", "OBJECT_ID": "1985-066A", "EPOCH": "2025-12-16T20:54:51.113952", "MEAN_MOTION": 13.36078996, "ECCENTRICITY": 0.01693357, "INCLINATION": 90.1655, "RA_OF_ASC_NODE": 99.9146, "ARG_OF_PERICENTER": 72.3792, "MEAN_ANOMALY": 41.3477, "EPHEMERIS_TYPE": 0, "CLASSIFICATION_TYPE": "U", "NORAD_CAT_ID": 15935, "ELEMENT_SET_NO": 999, "REV_AT_EPOCH": 96508, "BSTAR": 0.00011545195, "MEAN_MOTION_DOT": 7.4e-07, "MEAN_MOTION_DDOT": 0}, "tle": {"line1": "1 15935U 85066A   25350.87142493  .00000074  00000+0  11545-3 0  9990", "line2": "2 15935  90.1655  99.9146 0169335  72.3792  41.3477 13.36078996965082"}}, "geometry": {"type": "Point", "coordinates": [100.55446338542369, -75.37020103750336]}}, {"type": "Feature", "properties": {"norad_id": 15936, "name": "OSCAR 24", "group": "nnss", "lat": -3.2537374064025966, "lon": 92.3946208008469, "alt_km": 1105.6939277258243, "timestamp": "2025-12-17T04:57:44.635595+00:00", "meta": {"OBJECT_NAME": "OSCAR 24", "OBJECT_ID": "1985-066B", "EPOCH": "2025-12-17T00:26:05.130816", "MEAN_MOTION": 13.35936364, "ECCENTRICITY": 0.01704246, "INCLINATION": 90.1792, "RA_OF_ASC_NODE": 92.3811, "ARG_OF_PERICENTER": 78.4008, "MEAN_ANOMALY": 93.6219, "EPHEMERIS_TYPE": 0, "CLASSIFICATION_TYPE": "U", "NORAD_CAT_ID": 15936, "ELEMENT_SET_NO": 999, "REV_AT_EPOCH": 96700, "BSTAR": 9.0846987e-05, "MEAN_MOTION_DOT": 6.1e-07, "MEAN_MOTION_DDOT": 0}, "tle": {"line1": "1 15936U 85066B   25351.01811494  .00000061  00000+0  90847-4 0  9991", "line2": "2 15936  90.1792  92.3811 0170424  78.4008  93.6219 13.35936364967008"}}, "geometry": {"type": "Point", "coordinates": [92.3946208008469, -3.2537374064025966]}}]}